GSAT0232 (GALILEO 32)   
1 61182U 24167A   24279.06455207  .00000009  00000+0  00000+0 0  9998
2 61182  55.4085 238.3335 0017154 273.0908  86.6759  1.73177090   298
GSAT0226 (GALILEO 31)   
1 61183U 24167B   24278.53704925  .00000006  00000+0  00000+0 0  9991
2 61183  55.4090 238.3638 0032528  98.1835 216.1601  1.71379623   287
QAEM 100 R/B            
1 61071U 24165A   24279.88735346  .00011333  00000+0  80186-3 0  9997
2 61071  64.0949 269.4238 0006240 256.8692 103.1724 15.05201794  3255
CHAMRAN-1               
1 61072U 24165B   24280.18060466  .00018537  00000+0  12076-2 0  9992
2 61072  64.0893 268.1596 0015982 289.7414  70.1976 15.07915593  3306
2024-166A               
1 61179U 24166A   24280.10605582  .00087552  00000+0  46118-3 0  9995
2 61179  96.7647 175.1661 0014594 166.1536 194.0136 15.80279006  2973
2024-166B               
1 61180U 24166B   24280.23248261  .00076910  00000+0  40500-3 0  9993
2 61180  96.7646 175.2906 0014698 165.4233 194.7463 15.80313733  2974
QAEM 100 DEB            
1 61181U 24165C   24280.08916096  .00284039  00000+0  15220-1 0  9996
2 61181  64.1221 268.3402 0007989 294.7213  65.3072 15.13397992  3006
FALCON R/B              
1 61184U 24167C   24279.10434209  .00000009  00000+0  00000+0 0  9994
2 61184  55.4106 238.3386 0009961   5.3768 354.5968  1.72615400   275
2024-168A               
1 61185U 24168A   24279.30961366 -.00000066  00000+0  00000+0 0  9991
2 61185  54.9288 323.6754 0079150 294.4029  64.8409  1.80096614   300
2024-168B               
1 61186U 24168B   24279.80488316 -.00000063  00000+0  00000+0 0  9993
2 61186  54.9766 323.6550 0117643 177.3788 315.4676  1.82969170   306
2024-168C               
1 61187U 24168C   24279.72351866 -.00000063  00000+0  00000+0 0  9994
2 61187  54.9873 323.6511 0066473 179.9659 305.6787  1.84329694   310
2024-168D               
1 61188U 24168D   24280.11292809  .00137231 -93917-7  16542-2 0  9997
2 61188  55.0045 314.5274 5800162 175.6314 193.4626  4.45552130   741
2024-169A               
1 61189U 24169A   24280.20458667  .00019585  00000+0  12571-2 0  9996
2 61189  97.5966   5.4391 0009387 221.6423 138.4091 15.08473550  2419
2024-169B               
1 61190U 24169B   24280.20033545  .00020866  00000+0  13221-2 0  9999
2 61190  97.5867   5.4241 0009247 215.2022 144.8597 15.08936075  2412
2024-169C               
1 61191U 24169C   24280.19458842  .00021192  00000+0  13169-2 0  9993
2 61191  97.5943   5.4463 0010022 211.9846 148.0775 15.09638426  2418
2024-169D               
1 61192U 24169D   24280.19071872  .00022277  00000+0  13598-2 0  9999
2 61192  97.5872   5.4368 0012633 218.2956 141.7377 15.10255322  2416
2024-169E               
1 61193U 24169E   24280.18722554  .00021658  00000+0  13057-2 0  9991
2 61193  97.5974   5.4617 0013919 225.3511 134.6585 15.10699440  2416
2024-169F               
1 61194U 24169F   24280.17920958  .00022243  00000+0  13068-2 0  9992
2 61194  97.5951   5.4676 0017023 233.7035 126.2624 15.11586867  2411
2024-170A               
1 61195U 24170A   24280.14281769  .00001853  00000+0  10487-2 0  9998
2 61195  44.8585  27.8058 0006576 356.2232   3.8554 14.13385951  2215
2024-170B               
1 61196U 24170B   24280.14289812  .00001865  00000+0  10576-2 0  9998
2 61196  44.8598  27.8092 0006739 348.6847  11.3837 14.13247910  2216
2024-170C               
1 61197U 24170C   24280.14519119  .00001792  00000+0  10202-2 0  9990
2 61197  44.8635  27.8300 0006696 343.8861  16.1761 14.13203575  2214
2024-170D               
1 61198U 24170D   24280.14654759  .00001812  00000+0  10330-2 0  9996
2 61198  44.8621  27.8355 0006899 343.0065  17.0539 14.13068307  2230
KZ-1A R/B               
1 61199U 24170E   24280.21212217  .00213866  14954-4  19407-2 0  9990
2 61199  44.7458  18.0702 0495864 198.9944 159.1827 14.86389305  2358
STARLINK-11209 [DTC]    
1 61200U 24171A   24279.91667824  .00035293  00000+0  21877-3 0  9990
2 61200  53.1590 220.1656 0000865  91.1771 162.9614 15.76725164  3669
STARLINK-11257 [DTC]    
1 61201U 24171B   24280.16668981 -.00023213  00000+0 -13817-3 0  9991
2 61201  53.1585 218.8654 0001135  77.0953 184.7368 15.76736177  3688
STARLINK-11309 [DTC]    
1 61202U 24171C   24279.91667824 -.00082676  00000+0 -50486-3 0  9999
2 61202  53.1601 220.0522 0001248 104.5371 205.0658 15.76781522  3663
STARLINK-11292 [DTC]    
1 61203U 24171D   24280.16668981 -.00020459  00000+0 -12126-3 0  9994
2 61203  53.1597 218.7517 0000521  57.5560 259.7377 15.76738620  3683
